start=new Date('2021-09-04T00:00:00.000Z').valueOf();
sats=[{"TIME_SYSTEM":"UTC","SITE":"AFETR","RA_OF_ASC_NODE":"201.5887","SEMIMAJOR_AXIS":"6925.324","RCS_SIZE":"LARGE","INCLINATION":"53.0554","MEAN_MOTION":"15.06407878","MEAN_ELEMENT_THEORY":"SGP4","PERIAPSIS":"546.248","CENTER_NAME":"EARTH","MEAN_MOTION_DDOT":"0.0000000000000","TLE_LINE2":"2 47570  53.0554 201.5887 0001360  57.1376 302.9744 15.06407878 33233","FILE":"3108176","CLASSIFICATION_TYPE":"U","PERIOD":"95.592","EPHEMERIS_TYPE":"0","TLE_LINE1":"1 47570U 21009Y   21246.28700641  .00001594  00000-0  12588-3 0  9994","ARG_OF_PERICENTER":"57.1376","OBJECT_NAME":"STARLINK-1969","BSTAR":"0.00012588000000","MEAN_ANOMALY":"302.9744","REF_FRAME":"TEME","NORAD_CAT_ID":"47570","ECCENTRICITY":"0.00013600","OBJECT_ID":"2021-009Y","ELEMENT_SET_NO":"999","APOAPSIS":"548.131","DECAY_DATE":null,"GP_ID":"184024197","EPOCH":"2021-09-03T06:53:17.353824","MEAN_MOTION_DOT":"0.00001594","REV_AT_EPOCH":"3323","LAUNCH_DATE":"2021-02-04","COUNTRY_CODE":"US","OBJECT_TYPE":"PAYLOAD"},{"MEAN_ELEMENT_THEORY":"SGP4","MEAN_MOTION_DDOT":"0.0000000000000","PERIAPSIS":"546.353","CENTER_NAME":"EARTH","FILE":"3108332","TLE_LINE2":"2 47571  53.0554 210.0447 0001213  27.4828 332.6225 15.06406849 32533","CLASSIFICATION_TYPE":"U","PERIOD":"95.592","EPHEMERIS_TYPE":"0","TLE_LINE1":"1 47571U 21009Z   21246.62887902 -.00002475  00000-0 -14731-3 0  9992","TIME_SYSTEM":"UTC","SITE":"AFETR","SEMIMAJOR_AXIS":"6925.328","RA_OF_ASC_NODE":"210.0447","RCS_SIZE":"LARGE","INCLINATION":"53.0554","MEAN_MOTION":"15.06406849","APOAPSIS":"548.033","GP_ID":"184050732","DECAY_DATE":null,"MEAN_MOTION_DOT":"-0.00002475","EPOCH":"2021-09-03T15:05:35.147328","REV_AT_EPOCH":"3253","LAUNCH_DATE":"2021-02-04","OBJECT_TYPE":"PAYLOAD","COUNTRY_CODE":"US","ARG_OF_PERICENTER":"27.4828","BSTAR":"-0.00014731000000","OBJECT_NAME":"STARLINK-1970","MEAN_ANOMALY":"332.6225","ECCENTRICITY":"0.00012130","NORAD_CAT_ID":"47571","REF_FRAME":"TEME","ELEMENT_SET_NO":"999","OBJECT_ID":"2021-009Z"},{"BSTAR":"0.00010148000000","OBJECT_NAME":"STARLINK-1971","ARG_OF_PERICENTER":"48.0661","ELEMENT_SET_NO":"999","OBJECT_ID":"2021-009AA","NORAD_CAT_ID":"47572","ECCENTRICITY":"0.00012150","REF_FRAME":"TEME","MEAN_ANOMALY":"312.0432","GP_ID":"184049482","DECAY_DATE":null,"APOAPSIS":"548.071","OBJECT_TYPE":"PAYLOAD","COUNTRY_CODE":"US","REV_AT_EPOCH":"3253","LAUNCH_DATE":"2021-02-04","MEAN_MOTION_DOT":"0.00001230","EPOCH":"2021-09-03T14:39:02.981952","SEMIMAJOR_AXIS":"6925.365","RA_OF_ASC_NODE":"210.1187","SITE":"AFETR","TIME_SYSTEM":"UTC","MEAN_MOTION":"15.06394783","INCLINATION":"53.0542","RCS_SIZE":"LARGE","MEAN_MOTION_DDOT":"0.0000000000000","CENTER_NAME":"EARTH","PERIAPSIS":"546.388","MEAN_ELEMENT_THEORY":"SGP4","TLE_LINE1":"1 47572U 21009AA  21246.61045118  .00001230  00000-0  10148-3 0  9991","PERIOD":"95.592","CLASSIFICATION_TYPE":"U","EPHEMERIS_TYPE":"0","FILE":"3108332","TLE_LINE2":"2 47572  53.0542 210.1187 0001215  48.0661 312.0432 15.06394783 32534"},{"INCLINATION":"53.0511","MEAN_MOTION":"15.06400141","RCS_SIZE":"LARGE","SEMIMAJOR_AXIS":"6925.348","RA_OF_ASC_NODE":"211.4341","TIME_SYSTEM":"UTC","SITE":"AFETR","TLE_LINE1":"1 47573U 21009AB  21246.32295506  .00000979  00000-0  84627-4 0  9991","FILE":"3108176","TLE_LINE2":"2 47573  53.0511 211.4341 0001133  38.3788 321.7281 15.06400141 33084","CLASSIFICATION_TYPE":"U","PERIOD":"95.592","EPHEMERIS_TYPE":"0","MEAN_MOTION_DDOT":"0.0000000000000","PERIAPSIS":"546.428","CENTER_NAME":"EARTH","MEAN_ELEMENT_THEORY":"SGP4","OBJECT_ID":"2021-009AB","ELEMENT_SET_NO":"999","MEAN_ANOMALY":"321.7281","ECCENTRICITY":"0.00011330","NORAD_CAT_ID":"47573","REF_FRAME":"TEME","BSTAR":"0.00008462700000","OBJECT_NAME":"STARLINK-1975","ARG_OF_PERICENTER":"38.3788","OBJECT_TYPE":"PAYLOAD","COUNTRY_CODE":"US","MEAN_MOTION_DOT":"0.00000979","EPOCH":"2021-09-03T07:45:03.317184","LAUNCH_DATE":"2021-02-04","REV_AT_EPOCH":"3308","GP_ID":"184024194","DECAY_DATE":null,"APOAPSIS":"547.998"},{"MEAN_MOTION":"15.06389563","INCLINATION":"53.0547","RCS_SIZE":"LARGE","SEMIMAJOR_AXIS":"6925.381","RA_OF_ASC_NODE":"241.0417","SITE":"AFETR","TIME_SYSTEM":"UTC","TLE_LINE1":"1 47574U 21009AC  21246.40496331 -.00001202  00000-0 -61825-4 0  9997","PERIOD":"95.593","CLASSIFICATION_TYPE":"U","EPHEMERIS_TYPE":"0","FILE":"3108332","TLE_LINE2":"2 47574  53.0547 241.0417 0001081  67.8973 292.2131 15.06389563 32070","MEAN_MOTION_DDOT":"0.0000000000000","PERIAPSIS":"546.497","CENTER_NAME":"EARTH","MEAN_ELEMENT_THEORY":"SGP4","OBJECT_ID":"2021-009AC","ELEMENT_SET_NO":"999","ECCENTRICITY":"0.00010810","NORAD_CAT_ID":"47574","REF_FRAME":"TEME","MEAN_ANOMALY":"292.2131","BSTAR":"-0.00006182500000","OBJECT_NAME":"STARLINK-1976","ARG_OF_PERICENTER":"67.8973","OBJECT_TYPE":"PAYLOAD","COUNTRY_CODE":"US","LAUNCH_DATE":"2021-02-04","REV_AT_EPOCH":"3207","MEAN_MOTION_DOT":"-0.00001202","EPOCH":"2021-09-03T09:43:08.829984","GP_ID":"184050480","DECAY_DATE":null,"APOAPSIS":"547.994"},{"CLASSIFICATION_TYPE":"U","PERIOD":"95.592","EPHEMERIS_TYPE":"0","TLE_LINE2":"2 47575  53.0542 240.7999 0001000  53.2538 306.8542 15.06402817 32081","FILE":"3108332","TLE_LINE1":"1 47575U 21009AD  21246.46024322  .00000763  00000-0  70078-4 0  9990","MEAN_ELEMENT_THEORY":"SGP4","CENTER_NAME":"EARTH","PERIAPSIS":"546.512","MEAN_MOTION_DDOT":"0.0000000000000","RCS_SIZE":"LARGE","MEAN_MOTION":"15.06402817","INCLINATION":"53.0542","SITE":"AFETR","TIME_SYSTEM":"UTC","RA_OF_ASC_NODE":"240.7999","SEMIMAJOR_AXIS":"6925.340","REV_AT_EPOCH":"3208","LAUNCH_DATE":"2021-02-04","EPOCH":"2021-09-03T11:02:45.014208","MEAN_MOTION_DOT":"0.00000763","COUNTRY_CODE":"US","OBJECT_TYPE":"PAYLOAD","APOAPSIS":"547.897","DECAY_DATE":null,"GP_ID":"184050232","REF_FRAME":"TEME","NORAD_CAT_ID":"47575","ECCENTRICITY":"0.00010000","MEAN_ANOMALY":"306.8542","ELEMENT_SET_NO":"999","OBJECT_ID":"2021-009AD","ARG_OF_PERICENTER":"53.2538","BSTAR":"0.00007007800000","OBJECT_NAME":"STARLINK-1977"},{"SITE":"AFETR","TIME_SYSTEM":"UTC","RA_OF_ASC_NODE":"201.5558","SEMIMAJOR_AXIS":"6925.362","RCS_SIZE":"LARGE","MEAN_MOTION":"15.06395595","INCLINATION":"53.0565","MEAN_ELEMENT_THEORY":"SGP4","PERIAPSIS":"546.005","CENTER_NAME":"EARTH","MEAN_MOTION_DDOT":"0.0000000000000","PERIOD":"95.592","EPHEMERIS_TYPE":"0","CLASSIFICATION_TYPE":"U","TLE_LINE2":"2 47576  53.0565 201.5558 0001764  62.3732 297.7436 15.06395595 33239","FILE":"3108176","TLE_LINE1":"1 47576U 21009AE  21246.29437976 -.00000679  00000-0 -26709-4 0  9995","ARG_OF_PERICENTER":"62.3732","BSTAR":"-0.00002670900000","OBJECT_NAME":"STARLINK-1978","REF_FRAME":"TEME","NORAD_CAT_ID":"47576","ECCENTRICITY":"0.00017640","MEAN_ANOMALY":"297.7436","OBJECT_ID":"2021-009AE","ELEMENT_SET_NO":"999","APOAPSIS":"548.449","DECAY_DATE":null,"GP_ID":"184024694","LAUNCH_DATE":"2021-02-04","REV_AT_EPOCH":"3323","EPOCH":"2021-09-03T07:03:54.411264","MEAN_MOTION_DOT":"-0.00000679","COUNTRY_CODE":"US","OBJECT_TYPE":"PAYLOAD"},{"GP_ID":"184024191","DECAY_DATE":null,"APOAPSIS":"547.985","OBJECT_TYPE":"PAYLOAD","COUNTRY_CODE":"US","LAUNCH_DATE":"2021-02-04","REV_AT_EPOCH":"3302","MEAN_MOTION_DOT":"-0.00000945","EPOCH":"2021-09-03T08:02:57.416064","BSTAR":"-0.00004456600000","OBJECT_NAME":"STARLINK-1979","ARG_OF_PERICENTER":"33.3755","ELEMENT_SET_NO":"999","OBJECT_ID":"2021-009AF","ECCENTRICITY":"0.00011300","NORAD_CAT_ID":"47577","REF_FRAME":"TEME","MEAN_ANOMALY":"326.7305","MEAN_MOTION_DDOT":"0.0000000000000","CENTER_NAME":"EARTH","PERIAPSIS":"546.420","MEAN_ELEMENT_THEORY":"SGP4","TLE_LINE1":"1 47577U 21009AF  21246.33538676 -.00000945  00000-0 -44566-4 0  9997","EPHEMERIS_TYPE":"0","PERIOD":"95.592","CLASSIFICATION_TYPE":"U","FILE":"3108176","TLE_LINE2":"2 47577  53.0613 216.3572 0001130  33.3755 326.7305 15.06403607 33023","SEMIMAJOR_AXIS":"6925.338","RA_OF_ASC_NODE":"216.3572","SITE":"AFETR","TIME_SYSTEM":"UTC","MEAN_MOTION":"15.06403607","INCLINATION":"53.0613","RCS_SIZE":"LARGE"},{"TLE_LINE1":"1 47578U 21009AG  21246.66115969  .00000775  00000-0  70900-4 0  9990","TLE_LINE2":"2 47578  53.0543 219.8967 0000952  37.8844 322.2211 15.06390173 32390","FILE":"3108332","EPHEMERIS_TYPE":"0","PERIOD":"95.593","CLASSIFICATION_TYPE":"U","CENTER_NAME":"EARTH","PERIAPSIS":"546.584","MEAN_MOTION_DDOT":"0.0000000000000","MEAN_ELEMENT_THEORY":"SGP4","INCLINATION":"53.0543","MEAN_MOTION":"15.06390173","RCS_SIZE":"LARGE","RA_OF_ASC_NODE":"219.8967","SEMIMAJOR_AXIS":"6925.379","TIME_SYSTEM":"UTC","SITE":"AFETR","COUNTRY_CODE":"US","OBJECT_TYPE":"PAYLOAD","EPOCH":"2021-09-03T15:52:04.197216","MEAN_MOTION_DOT":"0.00000775","REV_AT_EPOCH":"3239","LAUNCH_DATE":"2021-02-04","DECAY_DATE":null,"GP_ID":"184049980","APOAPSIS":"547.903","OBJECT_ID":"2021-009AG","ELEMENT_SET_NO":"999","MEAN_ANOMALY":"322.2211","REF_FRAME":"TEME","ECCENTRICITY":"0.00009520","NORAD_CAT_ID":"47578","BSTAR":"0.00007090000000","OBJECT_NAME":"STARLINK-1980","ARG_OF_PERICENTER":"37.8844"},{"MEAN_MOTION":"15.06401928","INCLINATION":"53.0547","RCS_SIZE":"LARGE","RA_OF_ASC_NODE":"211.4654","SEMIMAJOR_AXIS":"6925.343","SITE":"AFETR","TIME_SYSTEM":"UTC","TLE_LINE1":"1 47579U 21009AH  21246.31189186  .00001011  00000-0  86723-4 0  9999","PERIOD":"95.592","EPHEMERIS_TYPE":"0","CLASSIFICATION_TYPE":"U","TLE_LINE2":"2 47579  53.0547 211.4654 0001394  62.1971 297.9159 15.06401928 33086","FILE":"3108177","PERIAPSIS":"546.242","CENTER_NAME":"EARTH","MEAN_MOTION_DDOT":"0.0000000000000","MEAN_ELEMENT_THEORY":"SGP4","ELEMENT_SET_NO":"999","OBJECT_ID":"2021-009AH","REF_FRAME":"TEME","NORAD_CAT_ID":"47579","ECCENTRICITY":"0.00013940","MEAN_ANOMALY":"297.9159","BSTAR":"0.00008672300000","OBJECT_NAME":"STARLINK-1981","ARG_OF_PERICENTER":"62.1971","COUNTRY_CODE":"US","OBJECT_TYPE":"PAYLOAD","REV_AT_EPOCH":"3308","LAUNCH_DATE":"2021-02-04","EPOCH":"2021-09-03T07:29:07.456704","MEAN_MOTION_DOT":"0.00001011","DECAY_DATE":null,"GP_ID":"184024712","APOAPSIS":"548.173"}];
